{
    "CCSDS_OMM_VERS": "3.0",
    "COMMENT": "GENERATED VIA SPACE-TRACK.ORG API",
    "CREATION_DATE": "2025-11-24T07:26:19",
    "ORIGINATOR": "18 SPCS",
    "OBJECT_NAME": "GALILEO-PFM",
    "OBJECT_ID": "2011-060A",
    "CENTER_NAME": "EARTH",
    "REF_FRAME": "TEME",
    "TIME_SYSTEM": "UTC",
    "MEAN_ELEMENT_THEORY": "SGP4",
    "EPOCH": "2025-11-23T13:02:49.009056",
    "MEAN_MOTION": "1.70475793",
    "ECCENTRICITY": "0.00025750",
    "INCLINATION": "57.0576",
    "RA_OF_ASC_NODE": "347.3415",
    "ARG_OF_PERICENTER": "308.0644",
    "MEAN_ANOMALY": "51.9574",
    "EPHEMERIS_TYPE": "0",
    "CLASSIFICATION_TYPE": "U",
    "NORAD_CAT_ID": "37846",
    "ELEMENT_SET_NO": "999",
    "REV_AT_EPOCH": "8761",
    "BSTAR": "0.00000000000000",
    "MEAN_MOTION_DOT": "-0.00000065",
    "MEAN_MOTION_DDOT": "0.0000000000000",
    "SEMIMAJOR_AXIS": "29600.113",
    "PERIOD": "844.695",
    "APOAPSIS": "23229.600",
    "PERIAPSIS": "23214.355",
    "OBJECT_TYPE": "PAYLOAD",
    "RCS_SIZE": "LARGE",
    "COUNTRY_CODE": "ESA",
    "LAUNCH_DATE": "2011-10-21",
    "SITE": "FRGUI",
    "DECAY_DATE": null,
    "FILE": "4896933",
    "GP_ID": "303365461",
    "TLE_LINE0": "0 GALILEO-PFM",
    "TLE_LINE1": "1 37846U 11060A   25327.54362279 -.00000065  00000-0  00000+0 0  9994",
    "TLE_LINE2": "2 37846  57.0576 347.3415 0002575 308.0644  51.9574  1.70475793 87617"
}